STARLINK-3853           
1 52359U 22045AE  26068.67884796  .00000514  00000+0  50358-4 0  9998
2 52359  53.2176 199.1814 0001184  88.6312 271.4816 15.08834782215783
LEMUR-2-MARHISYAM       
1 60536U 24149BW  26068.74036894  .00013075  00000+0  82973-3 0  9990
2 60536  97.6912 151.2662 0003578 107.3271 252.8349 15.09015520 85478
